start=new Date('2022-06-01T00:00:00.000Z').valueOf();
sats=[{"TLE_LINE2":"2 47990  53.0542 312.2138 0001798  50.5297 309.5851 15.06388014 67609","ARG_OF_PERICENTER":"50.5297","RA_OF_ASC_NODE":"312.2138","APOAPSIS":"548.495","MEAN_MOTION_DDOT":"0.0000000000000","SEMIMAJOR_AXIS":"6925.385","ELEMENT_SET_NO":"999","CENTER_NAME":"EARTH","REF_FRAME":"TEME","INCLINATION":"53.0542","RCS_SIZE":"LARGE","PERIOD":"95.593","EPOCH":"2022-05-31T19:05:57.081120","NORAD_CAT_ID":"47990","SITE":"AFETR","BSTAR":"0.00009647900000","ECCENTRICITY":"0.00017980","PERIAPSIS":"546.005","FILE":"3474297","GP_ID":"205036007","CLASSIFICATION_TYPE":"U","TLE_LINE1":"1 47990U 21024P   22151.79579955  .00001155  00000-0  96479-4 0  9996","LAUNCH_DATE":"2021-03-24","MEAN_MOTION_DOT":"0.00001155","COUNTRY_CODE":"US","TIME_SYSTEM":"UTC","MEAN_ANOMALY":"309.5851","REV_AT_EPOCH":"6760","DECAY_DATE":null,"MEAN_ELEMENT_THEORY":"SGP4","MEAN_MOTION":"15.06388014","OBJECT_TYPE":"PAYLOAD","OBJECT_NAME":"STARLINK-2307","OBJECT_ID":"2021-024P","EPHEMERIS_TYPE":"0"},{"NORAD_CAT_ID":"47991","SITE":"AFETR","PERIOD":"95.592","RCS_SIZE":"LARGE","EPOCH":"2022-05-31T14:00:01.000224","PERIAPSIS":"546.323","FILE":"3473869","BSTAR":"-0.00075886000000","ECCENTRICITY":"0.00012760","MEAN_MOTION_DDOT":"0.0000000000000","SEMIMAJOR_AXIS":"6925.342","TLE_LINE2":"2 47991  53.0553 328.1926 0001276  88.4711 136.2727 15.06402285 67362","ARG_OF_PERICENTER":"88.4711","APOAPSIS":"548.090","RA_OF_ASC_NODE":"328.1926","REF_FRAME":"TEME","INCLINATION":"53.0553","ELEMENT_SET_NO":"999","CENTER_NAME":"EARTH","MEAN_ELEMENT_THEORY":"SGP4","DECAY_DATE":null,"MEAN_MOTION":"15.06402285","MEAN_ANOMALY":"136.2727","REV_AT_EPOCH":"6736","OBJECT_ID":"2021-024Q","EPHEMERIS_TYPE":"0","OBJECT_NAME":"STARLINK-2279","OBJECT_TYPE":"PAYLOAD","TLE_LINE1":"1 47991U 21024Q   22151.58334491 -.00011567  00000-0 -75886-3 0  9996","LAUNCH_DATE":"2021-03-24","GP_ID":"205001326","CLASSIFICATION_TYPE":"U","MEAN_MOTION_DOT":"-0.00011567","COUNTRY_CODE":"US","TIME_SYSTEM":"UTC"},{"BSTAR":"0.00379150000000","ECCENTRICITY":"0.00019220","PERIAPSIS":"545.961","FILE":"3474416","RCS_SIZE":"LARGE","EPOCH":"2022-05-31T22:00:00.999936","PERIOD":"95.594","NORAD_CAT_ID":"47992","SITE":"AFETR","ELEMENT_SET_NO":"999","CENTER_NAME":"EARTH","REF_FRAME":"TEME","INCLINATION":"53.0549","ARG_OF_PERICENTER":"52.7656","TLE_LINE2":"2 47992  53.0549 321.6880 0001922  52.7656 113.3837 15.06374388 67499","RA_OF_ASC_NODE":"321.6880","APOAPSIS":"548.623","SEMIMAJOR_AXIS":"6925.427","MEAN_MOTION_DDOT":"0.0000000000000","OBJECT_TYPE":"PAYLOAD","OBJECT_NAME":"STARLINK-2229","OBJECT_ID":"2021-024R","EPHEMERIS_TYPE":"0","REV_AT_EPOCH":"6749","MEAN_ANOMALY":"113.3837","DECAY_DATE":null,"MEAN_ELEMENT_THEORY":"SGP4","MEAN_MOTION":"15.06374388","MEAN_MOTION_DOT":"0.00056609","COUNTRY_CODE":"US","TIME_SYSTEM":"UTC","GP_ID":"205037699","CLASSIFICATION_TYPE":"U","LAUNCH_DATE":"2021-03-24","TLE_LINE1":"1 47992U 21024R   22151.91667824  .00056609  00000-0  37915-2 0  9997"},{"MEAN_MOTION_DOT":"-0.00002338","COUNTRY_CODE":"US","TIME_SYSTEM":"UTC","GP_ID":"205037742","CLASSIFICATION_TYPE":"U","TLE_LINE1":"1 47993U 21024S   22151.63637159 -.00002338  00000-0 -13806-3 0  9991","LAUNCH_DATE":"2021-03-24","OBJECT_NAME":"STARLINK-2273","OBJECT_TYPE":"PAYLOAD","OBJECT_ID":"2021-024S","EPHEMERIS_TYPE":"0","REV_AT_EPOCH":"6689","MEAN_ANOMALY":"296.7379","DECAY_DATE":null,"MEAN_ELEMENT_THEORY":"SGP4","MEAN_MOTION":"15.06413796","ELEMENT_SET_NO":"999","CENTER_NAME":"EARTH","REF_FRAME":"TEME","INCLINATION":"53.0563","ARG_OF_PERICENTER":"63.3780","TLE_LINE2":"2 47993  53.0563   2.9533 0001669  63.3780 296.7379 15.06413796 66891","RA_OF_ASC_NODE":"2.9533","APOAPSIS":"548.327","MEAN_MOTION_DDOT":"0.0000000000000","SEMIMAJOR_AXIS":"6925.306","BSTAR":"-0.00013806000000","ECCENTRICITY":"0.00016690","PERIAPSIS":"546.015","FILE":"3474395","EPOCH":"2022-05-31T15:16:22.505376","RCS_SIZE":"LARGE","PERIOD":"95.591","NORAD_CAT_ID":"47993","SITE":"AFETR"},{"ARG_OF_PERICENTER":"71.3825","TLE_LINE2":"2 47994  53.0571  20.6111 0001574  71.3825 288.7335 15.06391243 66596","RA_OF_ASC_NODE":"20.6111","APOAPSIS":"548.330","SEMIMAJOR_AXIS":"6925.375","MEAN_MOTION_DDOT":"0.0000000000000","ELEMENT_SET_NO":"999","CENTER_NAME":"EARTH","REF_FRAME":"TEME","INCLINATION":"53.0571","RCS_SIZE":"LARGE","PERIOD":"95.593","EPOCH":"2022-05-31T01:02:30.894432","NORAD_CAT_ID":"47994","SITE":"AFETR","BSTAR":"-0.00019509000000","ECCENTRICITY":"0.00015740","PERIAPSIS":"546.150","FILE":"3474395","GP_ID":"205038240","CLASSIFICATION_TYPE":"U","TLE_LINE1":"1 47994U 21024T   22151.04341313 -.00003185  00000-0 -19509-3 0  9998","LAUNCH_DATE":"2021-03-24","MEAN_MOTION_DOT":"-0.00003185","COUNTRY_CODE":"US","TIME_SYSTEM":"UTC","MEAN_ANOMALY":"288.7335","REV_AT_EPOCH":"6659","DECAY_DATE":null,"MEAN_ELEMENT_THEORY":"SGP4","MEAN_MOTION":"15.06391243","OBJECT_TYPE":"PAYLOAD","OBJECT_NAME":"STARLINK-2290","OBJECT_ID":"2021-024T","EPHEMERIS_TYPE":"0"},{"RCS_SIZE":"LARGE","PERIOD":"95.748","EPOCH":"2022-05-31T19:58:12.827424","NORAD_CAT_ID":"47995","SITE":"AFETR","BSTAR":"-0.00007236000000","ECCENTRICITY":"0.00014860","PERIAPSIS":"553.704","FILE":"3474398","TLE_LINE2":"2 47995  53.0540 342.2128 0001486  64.3367 295.7775 15.03949454 67204","ARG_OF_PERICENTER":"64.3367","RA_OF_ASC_NODE":"342.2128","APOAPSIS":"555.765","SEMIMAJOR_AXIS":"6932.869","MEAN_MOTION_DDOT":"0.0000000000000","ELEMENT_SET_NO":"999","CENTER_NAME":"EARTH","REF_FRAME":"TEME","INCLINATION":"53.0540","MEAN_ANOMALY":"295.7775","REV_AT_EPOCH":"6720","DECAY_DATE":null,"MEAN_ELEMENT_THEORY":"SGP4","MEAN_MOTION":"15.03949454","OBJECT_NAME":"STARLINK-2309","OBJECT_TYPE":"PAYLOAD","OBJECT_ID":"2021-024U","EPHEMERIS_TYPE":"0","GP_ID":"205037788","CLASSIFICATION_TYPE":"U","TLE_LINE1":"1 47995U 21024U   22151.83209291 -.00001284  00000-0 -72360-4 0  9997","LAUNCH_DATE":"2021-03-24","MEAN_MOTION_DOT":"-0.00001284","TIME_SYSTEM":"UTC","COUNTRY_CODE":"US"},{"MEAN_MOTION_DOT":"-0.00108442","COUNTRY_CODE":"US","TIME_SYSTEM":"UTC","GP_ID":"205037797","CLASSIFICATION_TYPE":"U","LAUNCH_DATE":"2021-03-24","TLE_LINE1":"1 47996U 21024V   22151.80068840 -.00108442  00000-0 -54633-2 0  9993","OBJECT_TYPE":"PAYLOAD","OBJECT_NAME":"STARLINK-2260","OBJECT_ID":"2021-024V","EPHEMERIS_TYPE":"0","REV_AT_EPOCH":"6823","MEAN_ANOMALY":"352.2634","MEAN_ELEMENT_THEORY":"SGP4","DECAY_DATE":null,"MEAN_MOTION":"15.17154884","ELEMENT_SET_NO":"999","CENTER_NAME":"EARTH","REF_FRAME":"TEME","INCLINATION":"53.0515","ARG_OF_PERICENTER":"7.8383","TLE_LINE2":"2 47996  53.0515 267.9473 0001505   7.8383 352.2634 15.17154884 68232","APOAPSIS":"515.484","RA_OF_ASC_NODE":"267.9473","SEMIMAJOR_AXIS":"6892.581","MEAN_MOTION_DDOT":"0.0000000000000","BSTAR":"-0.00546330000000","ECCENTRICITY":"0.00015050","PERIAPSIS":"513.409","FILE":"3474398","PERIOD":"94.915","RCS_SIZE":"LARGE","EPOCH":"2022-05-31T19:12:59.477760","NORAD_CAT_ID":"47996","SITE":"AFETR"},{"OBJECT_ID":"2021-024W","EPHEMERIS_TYPE":"0","OBJECT_NAME":"STARLINK-2266","OBJECT_TYPE":"PAYLOAD","DECAY_DATE":null,"MEAN_ELEMENT_THEORY":"SGP4","MEAN_MOTION":"15.06396731","REV_AT_EPOCH":"6664","MEAN_ANOMALY":"283.2983","MEAN_MOTION_DOT":"0.00005426","COUNTRY_CODE":"US","TIME_SYSTEM":"UTC","TLE_LINE1":"1 47997U 21024W   22151.35671254  .00005426  00000-0  38294-3 0  9995","LAUNCH_DATE":"2021-03-24","GP_ID":"205037791","CLASSIFICATION_TYPE":"U","PERIAPSIS":"546.160","FILE":"3474398","BSTAR":"0.00038294000000","ECCENTRICITY":"0.00015360","NORAD_CAT_ID":"47997","SITE":"AFETR","PERIOD":"95.592","RCS_SIZE":"LARGE","EPOCH":"2022-05-31T08:33:39.963456","REF_FRAME":"TEME","INCLINATION":"53.0539","ELEMENT_SET_NO":"999","CENTER_NAME":"EARTH","SEMIMAJOR_AXIS":"6925.359","MEAN_MOTION_DDOT":"0.0000000000000","TLE_LINE2":"2 47997  53.0539  19.1999 0001536  76.8177 283.2983 15.06396731 66640","ARG_OF_PERICENTER":"76.8177","RA_OF_ASC_NODE":"19.1999","APOAPSIS":"548.287"},{"ECCENTRICITY":"0.00015970","BSTAR":"-0.00350190000000","FILE":"3474398","PERIAPSIS":"552.756","RCS_SIZE":"LARGE","PERIOD":"95.730","EPOCH":"2022-05-31T19:26:01.022784","SITE":"AFETR","NORAD_CAT_ID":"47998","CENTER_NAME":"EARTH","ELEMENT_SET_NO":"999","INCLINATION":"53.0555","REF_FRAME":"TEME","RA_OF_ASC_NODE":"352.2047","APOAPSIS":"554.970","TLE_LINE2":"2 47998  53.0555 352.2047 0001597  50.6501 309.4628 15.04232936 67059","ARG_OF_PERICENTER":"50.6501","SEMIMAJOR_AXIS":"6931.998","MEAN_MOTION_DDOT":"0.0000000000000","OBJECT_TYPE":"PAYLOAD","OBJECT_NAME":"STARLINK-2296","EPHEMERIS_TYPE":"0","OBJECT_ID":"2021-024X","REV_AT_EPOCH":"6705","MEAN_ANOMALY":"309.4628","MEAN_MOTION":"15.04232936","DECAY_DATE":null,"MEAN_ELEMENT_THEORY":"SGP4","COUNTRY_CODE":"US","TIME_SYSTEM":"UTC","MEAN_MOTION_DOT":"-0.00049147","CLASSIFICATION_TYPE":"U","GP_ID":"205037789","LAUNCH_DATE":"2021-03-24","TLE_LINE1":"1 47998U 21024X   22151.80973406 -.00049147  00000-0 -35019-2 0  9991"},{"TIME_SYSTEM":"UTC","COUNTRY_CODE":"US","MEAN_MOTION_DOT":"-0.00018798","CLASSIFICATION_TYPE":"U","GP_ID":"205005265","LAUNCH_DATE":"2021-03-24","TLE_LINE1":"1 47999U 21024Y   22151.58334491 -.00018798  00000-0 -12463-2 0  9998","OBJECT_TYPE":"PAYLOAD","OBJECT_NAME":"STARLINK-2218","EPHEMERIS_TYPE":"0","OBJECT_ID":"2021-024Y","REV_AT_EPOCH":"6744","MEAN_ANOMALY":"302.8900","MEAN_MOTION":"15.06402963","DECAY_DATE":null,"MEAN_ELEMENT_THEORY":"SGP4","CENTER_NAME":"EARTH","ELEMENT_SET_NO":"999","INCLINATION":"53.0530","REF_FRAME":"TEME","RA_OF_ASC_NODE":"323.1911","APOAPSIS":"548.254","TLE_LINE2":"2 47999  53.0530 323.1911 0001515  74.5469 302.8900 15.06402963 67442","ARG_OF_PERICENTER":"74.5469","SEMIMAJOR_AXIS":"6925.339","MEAN_MOTION_DDOT":"0.0000000000000","ECCENTRICITY":"0.00015150","BSTAR":"-0.00124630000000","FILE":"3474082","PERIAPSIS":"546.155","RCS_SIZE":"LARGE","PERIOD":"95.592","EPOCH":"2022-05-31T14:00:01.000224","SITE":"AFETR","NORAD_CAT_ID":"47999"}];
